STARLINK-3339           
1 50820U 22001T   23286.93713657  .00004585  00000+0  30589-3 0  9991
2 50820  53.2156 149.5068 0001380  93.1551 266.9599 15.08852160 97893
STARLINK-3346           
1 50821U 22001U   23286.92337240  .00001543  00000+0  11499-3 0  9991
2 50821  53.2148 149.5783 0001323  91.3962 268.7182 15.08846306 97895
STARLINK-3343           
1 50822U 22001V   23286.92977758  .00002858  00000+0  19757-3 0  9991
2 50822  53.2161 149.5420 0001460 102.2369 257.8787 15.08848475 97893
STARLINK-3334           
1 50823U 22001W   23286.89665776  .00005780  00000+0  38080-3 0  9999
2 50823  53.2146 149.6858 0001463  96.4848 263.6310 15.08852848 97898
STARLINK-3340           
1 50824U 22001X   23286.92609674  .00003528  00000+0  23958-3 0  9995
2 50824  53.2140 149.5579 0001173  98.2939 261.8186 15.08845109 97894
STARLINK-3332           
1 50825U 22001Y   23286.86721707  .00003726  00000+0  25202-3 0  9995
2 50825  53.2144 149.8239 0000936  97.4589 262.6510 15.08848796 97887
STARLINK-3337           
1 50826U 22001Z   23286.91136975  .00010187  00000+0  65669-3 0  9999
2 50826  53.2153 149.6208 0001325  92.9633 267.1511 15.08870681 97895
STARLINK-3329           
1 50827U 22001AA  23286.87825716  .00005819  00000+0  38331-3 0  9995
2 50827  53.2147 149.7730 0001257  90.6915 269.4221 15.08850055 97887
STARLINK-3290           
1 50828U 22001AB  23286.86448322  .00001752  00000+0  12814-3 0  9999
2 50828  53.2143 149.7252 0001202  83.3195 276.7934 15.08845269 97739
STARLINK-3294           
1 50829U 22001AC  23286.88561900  .00002830  00000+0  19581-3 0  9996
2 50829  53.2161 149.7342 0001084  89.2165 270.8951 15.08846148 97887
STARLINK-3278           
1 50830U 22001AD  23286.90309784  .00004802  00000+0  31948-3 0  9993
2 50830  53.2147 159.6570 0001427  98.8388 261.2766 15.08849734 97758
STARLINK-3299           
1 50831U 22001AE  23286.91506668  .00005955  00000+0  39178-3 0  9998
2 50831  53.2152 149.6714 0001440  95.6280 264.4877 15.08854331 97897
STARLINK-3328           
1 50832U 22001AF  23286.90405973  .00006631  00000+0  43418-3 0  9999
2 50832  53.2151 159.7008 0001285  92.9818 267.1321 15.08852265 97752
STARLINK-3316           
1 50833U 22001AG  23286.88909895  .00008677  00000+0  45840-3 0  9992
2 50833  53.2158 137.6532 0001994 229.3785 130.7037 15.16262736 98064
STARLINK-3331           
1 50834U 22001AH  23286.95461666  .00003352  00000+0  22855-3 0  9996
2 50834  53.2157 159.4307 0001286  98.4998 261.6140 15.08849316 97751
STARLINK-3310           
1 50835U 22001AJ  23286.89207211  .00022794  00000+0  14452-2 0  9998
2 50835  53.2165 159.8244 0001401  72.2288 287.8857 15.08851109 97743
STARLINK-3330           
1 50836U 22001AK  23286.93714754  .00017325  00000+0  11033-2 0  9995
2 50836  53.2155 159.2814 0001415  84.2625 275.8528 15.08862193 97650
STARLINK-3318           
1 50837U 22001AL  23286.91873333  .00004784  00000+0  31831-3 0  9997
2 50837  53.2149 149.5886 0001329  95.0643 265.0501 15.08854428 97899
STARLINK-3322           
1 50838U 22001AM  23286.89538037  .00007042  00000+0  45995-3 0  9990
2 50838  53.2146 155.2296 0001004  99.0177 261.0929 15.08852048 97810
STARLINK-3320           
1 50839U 22001AN  23286.93621461  .00039146  00000+0  24621-2 0  9992
2 50839  53.2164 159.5111 0001623 103.1774 256.9400 15.08869447 97741
STARLINK-3295           
1 50840U 22001AP  23286.93253811  .00002120  00000+0  15123-3 0  9994
2 50840  53.2170 159.5268 0001435  98.1840 261.9315 15.08848790 97740
STARLINK-3300           
1 50841U 22001AQ  23286.94358075  .00009114  00000+0  58986-3 0  9998
2 50841  53.2169 159.4763 0001417  89.8036 270.3118 15.08847289 97750
STARLINK-3302           
1 50842U 22001AR  23286.92885614  .00008004  00000+0  52019-3 0  9999
2 50842  53.2165 159.5421 0001321  99.8672 260.2470 15.08855863 97745
STARLINK-3325           
1 50843U 22001AS  23286.95093765  .00001230  00000+0  95354-4 0  9995
2 50843  53.2163 159.4489 0001452  92.9480 267.1678 15.08846057 97755
STARLINK-3326           
1 50844U 22001AT  23286.91781757  .00004855  00000+0  32284-3 0  9995
2 50844  53.2159 159.5891 0001023  96.7191 263.3918 15.08850932 97756
STARLINK-3230           
1 50845U 22001AU  23286.89574175  .00000045  00000+0  20940-4 0  9991
2 50845  53.2156 159.6939 0001297  96.0334 264.0806 15.08842156 97756
STARLINK-3308           
1 50846U 22001AV  23286.92519427  .00004565  00000+0  30469-3 0  9992
2 50846  53.2159 159.6734 0001608  91.8143 268.3034 15.08847410 97758
STARLINK-3319           
1 50847U 22001AW  23286.94085256  .00001645  00000+0  12141-3 0  9996
2 50847  53.2168 159.4965 0001431  94.3677 265.7479 15.08840229 97752
STARLINK-3315           
1 50848U 22001AX  23286.91046097  .00003868  00000+0  26094-3 0  9995
2 50848  53.2158 159.6221 0001159  97.9340 262.1784 15.08846715 97758
STARLINK-3311           
1 50849U 22001AY  23286.92149880  .00005247  00000+0  34743-3 0  9994
2 50849  53.2160 159.5725 0001044 106.0817 254.0290 15.08846705 97755
STARLINK-3312           
1 50850U 22001AZ  23286.85893629  .00000722  00000+0  63430-4 0  9994
2 50850  53.2157 119.8566 0001411  78.4354 281.6796 15.08841953 98849
STARLINK-3314           
1 50851U 22001BA  23286.89941183  .00000365  00000+0  41010-4 0  9991
2 50851  53.2161 159.5990 0001668  78.9923 281.1257 15.08842816 97753
UMBRA-02                
1 50986U 22002C   23286.90755519  .00060447  00000+0  31437-2 0  9996
2 50986  97.4284 351.2839 0005530 259.1478 100.9132 15.15802913 96718
TEVEL-3                 
1 50988U 22002E   23286.86624089  .00058079  00000+0  19155-2 0  9991
2 50988  97.4205 353.3862 0006975 167.2510 192.8909 15.31206670 96888
TEVEL-8                 
1 50989U 22002F   23286.82519860  .00056085  00000+0  18551-2 0  9992
2 50989  97.4223 353.4172 0006971 166.9910 193.1512 15.31123077 96872
FLOCK 4X-8              
1 50992U 22002J   23286.93009684  .00037424  00000+0  12070-2 0  9992
2 50992  97.4284 355.5250 0008049 170.5005 189.6390 15.32030337 96991
ION SCV-004             
1 50993U 22002K   23286.73461576  .00008189  00000+0  43454-3 0  9990
2 50993  97.4256 348.2226 0008797 172.7339 187.4023 15.15563923 96506
FLOCK 4X-44             
1 50994U 22002L   23286.92225339  .00040979  00000+0  13105-2 0  9999
2 50994  97.4287 355.6778 0007977 171.1515 188.9869 15.32281958 96994
MDASAT-1A               
1 50995U 22002M   23286.73515941  .00023023  00000+0  98989-3 0  9995
2 50995  97.4224 350.7290 0008227 173.4008 186.7338 15.22625232 96692
FLOCK 4X-2              
1 50996U 22002N   23286.74711956  .00037569  00000+0  12151-2 0  9997
2 50996  97.4287 355.3955 0008102 172.5586 187.5777 15.31938228 96962
FLOCK 4X-20             
1 50997U 22002P   23286.72511290  .00032603  00000+0  10466-2 0  9996
2 50997  97.4291 355.4086 0007794 171.5646 188.5728 15.32212347 96961
TEVEL-5                 
1 50998U 22002Q   23286.86850958  .00060082  00000+0  19123-2 0  9990
2 50998  97.4201 353.9335 0007960 162.6366 197.5149 15.32334813 96924
TEVEL-6                 
1 50999U 22002R   23286.86722932  .00060720  00000+0  19330-2 0  9990
2 50999  97.4199 353.9238 0007967 162.3056 197.8464 15.32325239 96928
FLOCK 4X-30             
1 51000U 22002S   23286.93079256  .00032577  00000+0  10516-2 0  9992
2 51000  97.4229 355.1397 0008249 161.9051 198.2486 15.32030091 96995
KEPLER-18 (BLIP-A)      
1 51002U 22002U   23286.71177224  .00045346  00000+0  15574-2 0  9991
2 51002  97.4245 353.3336 0009457 165.5287 194.6226 15.29940038 96855
FLOCK 4X-22             
1 51003U 22002V   23286.77551412  .00034546  00000+0  11032-2 0  9998
2 51003  97.4275 355.3630 0007695 174.7444 185.3880 15.32368075 96972
FLOCK 4X-5              
1 51004U 22002W   23286.72552511  .00030838  00000+0  99755-3 0  9994
2 51004  97.4248 355.0446 0008715 164.3007 195.8506 15.31970452 96966
FLOCK 4X-41             
1 51005U 22002X   23286.77645497  .00030959  00000+0  99745-3 0  9999
2 51005  97.4229 354.9895 0008088 161.0419 199.1126 15.32103727 96976
FLOCK 4X-3              
1 51006U 22002Y   23286.70161324  .00033565  00000+0  10746-2 0  9994
2 51006  97.4289 355.4283 0008211 169.0897 191.0525 15.32288920 96968
FLOCK 4X-18             
1 51007U 22002Z   23286.71862484  .00024789  00000+0  78949-3 0  9999
2 51007  97.4236 355.1977 0010142 159.2827 200.8827 15.32502541 96971
ICEYE-X16               
1 51008U 22002AA  23286.83008379  .00046333  00000+0  16404-2 0  9994
2 51008  97.4263 353.1037 0008014 171.8179 188.3193 15.28954737 96836
FLOCK 4X-37             
1 51009U 22002AB  23286.64434202  .00031354  00000+0  10075-2 0  9997
2 51009  97.4292 355.4166 0008545 170.9966 189.1430 15.32183269 96955
FLOCK 4X-15             
1 51010U 22002AC  23286.77313651  .00047637  00000+0  13196-2 0  9995
2 51010  97.4272 356.3283 0009116 155.5654 204.6024 15.36777198 97028
FLOCK 4X-29             
1 51011U 22002AD  23286.77749702  .00033373  00000+0  10699-2 0  9993
2 51011  97.4267 355.1629 0008234 162.1601 197.9932 15.32246204 96970
TEVEL-1                 
1 51013U 22002AF  23286.88014898  .00057073  00000+0  18862-2 0  9991
2 51013  97.4197 353.3213 0006907 167.4802 192.6612 15.31145670 96880
SATLLA-2B               
1 51014U 22002AG  23286.73933761  .00684891  00000+0  38766-2 0  9994
2 51014  97.4256   2.6274 0004279 240.8515 119.2323 15.77227560 97395
FLOCK 4X-12             
1 51015U 22002AH  23286.73171532  .00034664  00000+0  11270-2 0  9993
2 51015  97.4284 355.3644 0009495 168.4923 191.6537 15.31776209 96961
FLOCK 4X-25             
1 51016U 22002AJ  23286.92390458  .00042489  00000+0  13238-2 0  9995
2 51016  97.4245 355.5567 0008643 174.3633 185.7708 15.33103009 97007
FLOCK 4X-1              
1 51017U 22002AK  23286.91432589  .00038317  00000+0  12368-2 0  9995
2 51017  97.4249 355.2876 0009071 166.4339 193.7148 15.31990152 96998
